[
    {
        "Altitude(m)": 622205.8821846807,
        "Argument of Periapsis(deg)": 0.0,
        "Eccentricity": 0.0,
        "Inclination(deg)": 60.0,
        "Latitude(deg)": -52.16247597031798,
        "Longitude(deg)": -17.299465645963828,
        "Mean Anomaly(deg)": -114.5455,
        "RAAN(deg)": 215.0,
        "Satellite Name": "Test1 961",
        "Satellite Number": 961,
        "Semi-Major Axis(m)": 6980739.136638005,
        "Time(s)": 0
    },
    {
        "Altitude(m)": 622344.7881394362,
        "Argument of Periapsis(deg)": 0.00010418945913296404,
        "Eccentricity": 0.0,
        "Inclination(deg)": 60.0,
        "Latitude(deg)": -52.52005406964894,
        "Longitude(deg)": -16.518250758879965,
        "Mean Anomaly(deg)": -113.92539385453817,
        "RAAN(deg)": 214.99957995086024,
        "Satellite Name": "Test1 961",
        "Satellite Number": 961,
        "Semi-Major Axis(m)": 6980739.136638005,
        "Time(s)": 10
    }
]